YAOGAN-43 01B           
1 60459U 24148B   25334.67036987  .00015041  00000+0  50313-3 0  9991
2 60459  34.9955 322.1984 0011050 202.7581 157.2647 15.30074150 71941
YAOGAN-43 01C           
1 60460U 24148C   25334.68310039  .00012942  00000+0  53560-3 0  9991
2 60460  35.0012 331.1766 0005863 223.4521 136.5732 15.23125017 71852
YAOGAN-43 01D           
1 60461U 24148D   25334.67109714  .00008758  00000+0  32975-3 0  9994
2 60461  34.9950 327.0280 0003713 201.4459 158.6102 15.26352369 71890
YAOGAN-43 01E           
1 60462U 24148E   25334.67253317  .00017252  00000+0  71256-3 0  9998
2 60462  34.9949 328.9133 0008339 223.5457 136.4600 15.23131505 71877
YAOGAN-43 01F           
1 60463U 24148F   25334.71258248  .00016309  00000+0  61022-3 0  9994
2 60463  35.0004 329.3675 0009166 212.3062 147.7093 15.26425730 71875
YAOGAN-43 01G           
1 60464U 24148G   25334.41586472  .00009117  00000+0  34323-3 0  9998
2 60464  35.0001 328.9271 0006884 150.0790 210.0320 15.26334528 71859
YAOGAN-43 01H           
1 60465U 24148H   25334.41487448  .00011186  00000+0  45514-3 0  9995
2 60465  34.9965 332.5922 0007192 189.1212 170.9373 15.23710708 71819
YAOGAN-43 01J           
1 60466U 24148J   25334.41791649  .00017424  00000+0  58054-3 0  9991
2 60466  34.9941 324.0785 0012027 234.6892 125.2700 15.30167748 71905
