{
  "type": "FeatureCollection",
  "features": [
    {
      "type": "Feature",
      "properties": {
        "norad_id": 60459,
        "name": "YAOGAN-43 01B",
        "group": "active",
        "lat": NaN,
        "lon": NaN,
        "alt_km": NaN,
        "timestamp": "2025-12-01T03:08:33.387984+00:00",
        "meta": {
          "OBJECT_NAME": "YAOGAN-43 01B",
          "OBJECT_ID": "2024-148B",
          "EPOCH": "2025-11-30T16:05:19.956768",
          "MEAN_MOTION": 15.3007415,
          "ECCENTRICITY": 0.001105,
          "INCLINATION": 34.9955,
          "RA_OF_ASC_NODE": 322.1984,
          "ARG_OF_PERICENTER": 202.7581,
          "MEAN_ANOMALY": 157.2647,
          "EPHEMERIS_TYPE": 0,
          "CLASSIFICATION_TYPE": "U",
          "NORAD_CAT_ID": 60459,
          "ELEMENT_SET_NO": 999,
          "REV_AT_EPOCH": 7194,
          "BSTAR": 0.00050313,
          "MEAN_MOTION_DOT": 0.00015041,
          "MEAN_MOTION_DDOT": 0
        }
      },
      "geometry": {
        "type": "Point",
        "coordinates": [
          NaN,
          NaN
        ]
      }
    },
    {
      "type": "Feature",
      "properties": {
        "norad_id": 60460,
        "name": "YAOGAN-43 01C",
        "group": "active",
        "lat": NaN,
        "lon": NaN,
        "alt_km": NaN,
        "timestamp": "2025-12-01T03:08:33.387991+00:00",
        "meta": {
          "OBJECT_NAME": "YAOGAN-43 01C",
          "OBJECT_ID": "2024-148C",
          "EPOCH": "2025-11-30T16:23:39.873696",
          "MEAN_MOTION": 15.23125017,
          "ECCENTRICITY": 0.0005863,
          "INCLINATION": 35.0012,
          "RA_OF_ASC_NODE": 331.1766,
          "ARG_OF_PERICENTER": 223.4521,
          "MEAN_ANOMALY": 136.5732,
          "EPHEMERIS_TYPE": 0,
          "CLASSIFICATION_TYPE": "U",
          "NORAD_CAT_ID": 60460,
          "ELEMENT_SET_NO": 999,
          "REV_AT_EPOCH": 7185,
          "BSTAR": 0.0005356,
          "MEAN_MOTION_DOT": 0.00012942,
          "MEAN_MOTION_DDOT": 0
        }
      },
      "geometry": {
        "type": "Point",
        "coordinates": [
          NaN,
          NaN
        ]
      }
    },
    {
      "type": "Feature",
      "properties": {
        "norad_id": 60461,
        "name": "YAOGAN-43 01D",
        "group": "active",
        "lat": NaN,
        "lon": NaN,
        "alt_km": NaN,
        "timestamp": "2025-12-01T03:08:33.387996+00:00",
        "meta": {
          "OBJECT_NAME": "YAOGAN-43 01D",
          "OBJECT_ID": "2024-148D",
          "EPOCH": "2025-11-30T16:06:22.792896",
          "MEAN_MOTION": 15.26352369,
          "ECCENTRICITY": 0.0003713,
          "INCLINATION": 34.995,
          "RA_OF_ASC_NODE": 327.028,
          "ARG_OF_PERICENTER": 201.4459,
          "MEAN_ANOMALY": 158.6102,
          "EPHEMERIS_TYPE": 0,
          "CLASSIFICATION_TYPE": "U",
          "NORAD_CAT_ID": 60461,
          "ELEMENT_SET_NO": 999,
          "REV_AT_EPOCH": 7189,
          "BSTAR": 0.00032975,
          "MEAN_MOTION_DOT": 8.758e-05,
          "MEAN_MOTION_DDOT": 0
        }
      },
      "geometry": {
        "type": "Point",
        "coordinates": [
          NaN,
          NaN
        ]
      }
    },
    {
      "type": "Feature",
      "properties": {
        "norad_id": 60462,
        "name": "YAOGAN-43 01E",
        "group": "active",
        "lat": NaN,
        "lon": NaN,
        "alt_km": NaN,
        "timestamp": "2025-12-01T03:08:33.388001+00:00",
        "meta": {
          "OBJECT_NAME": "YAOGAN-43 01E",
          "OBJECT_ID": "2024-148E",
          "EPOCH": "2025-11-30T16:08:26.865888",
          "MEAN_MOTION": 15.23131505,
          "ECCENTRICITY": 0.0008339,
          "INCLINATION": 34.9949,
          "RA_OF_ASC_NODE": 328.9133,
          "ARG_OF_PERICENTER": 223.5457,
          "MEAN_ANOMALY": 136.46,
          "EPHEMERIS_TYPE": 0,
          "CLASSIFICATION_TYPE": "U",
          "NORAD_CAT_ID": 60462,
          "ELEMENT_SET_NO": 999,
          "REV_AT_EPOCH": 7187,
          "BSTAR": 0.00071256,
          "MEAN_MOTION_DOT": 0.00017252,
          "MEAN_MOTION_DDOT": 0
        }
      },
      "geometry": {
        "type": "Point",
        "coordinates": [
          NaN,
          NaN
        ]
      }
    },
    {
      "type": "Feature",
      "properties": {
        "norad_id": 60463,
        "name": "YAOGAN-43 01F",
        "group": "active",
        "lat": NaN,
        "lon": NaN,
        "alt_km": NaN,
        "timestamp": "2025-12-01T03:08:33.388006+00:00",
        "meta": {
          "OBJECT_NAME": "YAOGAN-43 01F",
          "OBJECT_ID": "2024-148F",
          "EPOCH": "2025-11-30T17:06:07.126272",
          "MEAN_MOTION": 15.2642573,
          "ECCENTRICITY": 0.0009166,
          "INCLINATION": 35.0004,
          "RA_OF_ASC_NODE": 329.3675,
          "ARG_OF_PERICENTER": 212.3062,
          "MEAN_ANOMALY": 147.7093,
          "EPHEMERIS_TYPE": 0,
          "CLASSIFICATION_TYPE": "U",
          "NORAD_CAT_ID": 60463,
          "ELEMENT_SET_NO": 999,
          "REV_AT_EPOCH": 7187,
          "BSTAR": 0.00061022,
          "MEAN_MOTION_DOT": 0.00016309,
          "MEAN_MOTION_DDOT": 0
        }
      },
      "geometry": {
        "type": "Point",
        "coordinates": [
          NaN,
          NaN
        ]
      }
    },
    {
      "type": "Feature",
      "properties": {
        "norad_id": 60464,
        "name": "YAOGAN-43 01G",
        "group": "active",
        "lat": NaN,
        "lon": NaN,
        "alt_km": NaN,
        "timestamp": "2025-12-01T03:08:33.388013+00:00",
        "meta": {
          "OBJECT_NAME": "YAOGAN-43 01G",
          "OBJECT_ID": "2024-148G",
          "EPOCH": "2025-11-30T09:58:50.711808",
          "MEAN_MOTION": 15.26334528,
          "ECCENTRICITY": 0.00068848,
          "INCLINATION": 35.0001,
          "RA_OF_ASC_NODE": 328.9271,
          "ARG_OF_PERICENTER": 150.079,
          "MEAN_ANOMALY": 210.032,
          "EPHEMERIS_TYPE": 0,
          "CLASSIFICATION_TYPE": "U",
          "NORAD_CAT_ID": 60464,
          "ELEMENT_SET_NO": 999,
          "REV_AT_EPOCH": 7185,
          "BSTAR": 0.00034323166,
          "MEAN_MOTION_DOT": 9.117e-05,
          "MEAN_MOTION_DDOT": 0
        }
      },
      "geometry": {
        "type": "Point",
        "coordinates": [
          NaN,
          NaN
        ]
      }
    },
    {
      "type": "Feature",
      "properties": {
        "norad_id": 60465,
        "name": "YAOGAN-43 01H",
        "group": "active",
        "lat": NaN,
        "lon": NaN,
        "alt_km": NaN,
        "timestamp": "2025-12-01T03:08:33.388019+00:00",
        "meta": {
          "OBJECT_NAME": "YAOGAN-43 01H",
          "OBJECT_ID": "2024-148H",
          "EPOCH": "2025-11-30T09:57:25.155072",
          "MEAN_MOTION": 15.23710708,
          "ECCENTRICITY": 0.00071929,
          "INCLINATION": 34.9965,
          "RA_OF_ASC_NODE": 332.5922,
          "ARG_OF_PERICENTER": 189.1212,
          "MEAN_ANOMALY": 170.9373,
          "EPHEMERIS_TYPE": 0,
          "CLASSIFICATION_TYPE": "U",
          "NORAD_CAT_ID": 60465,
          "ELEMENT_SET_NO": 999,
          "REV_AT_EPOCH": 7181,
          "BSTAR": 0.00045514491,
          "MEAN_MOTION_DOT": 0.00011186,
          "MEAN_MOTION_DDOT": 0
        }
      },
      "geometry": {
        "type": "Point",
        "coordinates": [
          NaN,
          NaN
        ]
      }
    },
    {
      "type": "Feature",
      "properties": {
        "norad_id": 60466,
        "name": "YAOGAN-43 01J",
        "group": "active",
        "lat": NaN,
        "lon": NaN,
        "alt_km": NaN,
        "timestamp": "2025-12-01T03:08:33.388023+00:00",
        "meta": {
          "OBJECT_NAME": "YAOGAN-43 01J",
          "OBJECT_ID": "2024-148J",
          "EPOCH": "2025-11-30T10:01:47.984736",
          "MEAN_MOTION": 15.30167748,
          "ECCENTRICITY": 0.00120277,
          "INCLINATION": 34.9941,
          "RA_OF_ASC_NODE": 324.0785,
          "ARG_OF_PERICENTER": 234.6892,
          "MEAN_ANOMALY": 125.27,
          "EPHEMERIS_TYPE": 0,
          "CLASSIFICATION_TYPE": "U",
          "NORAD_CAT_ID": 60466,
          "ELEMENT_SET_NO": 999,
          "REV_AT_EPOCH": 7190,
          "BSTAR": 0.00058054378,
          "MEAN_MOTION_DOT": 0.00017424,
          "MEAN_MOTION_DDOT": 0
        }
      },
      "geometry": {
        "type": "Point",
        "coordinates": [
          NaN,
          NaN
        ]
      }
    }
  ]
}